[
    {
        "CCSDS_OMM_VERS": "3.0",
        "COMMENT": "GENERATED VIA SPACE-TRACK.ORG API",
        "CREATION_DATE": "2025-05-02T02:33:21",
        "ORIGINATOR": "18 SPCS",
        "OBJECT_NAME": "GALILEO 11 (268)",
        "OBJECT_ID": "2015-079B",
        "CENTER_NAME": "EARTH",
        "REF_FRAME": "TEME",
        "TIME_SYSTEM": "UTC",
        "MEAN_ELEMENT_THEORY": "SGP4",
        "EPOCH": "2025-05-01T11:26:25.624608",
        "MEAN_MOTION": "1.70474064",
        "ECCENTRICITY": "0.00049960",
        "INCLINATION": "55.5833",
        "RA_OF_ASC_NODE": "112.5632",
        "ARG_OF_PERICENTER": "319.7136",
        "MEAN_ANOMALY": "40.2309",
        "EPHEMERIS_TYPE": "0",
        "CLASSIFICATION_TYPE": "U",
        "NORAD_CAT_ID": "41175",
        "ELEMENT_SET_NO": "999",
        "REV_AT_EPOCH": "5817",
        "BSTAR": "0.00000000000000",
        "MEAN_MOTION_DOT": "0.00000037",
        "MEAN_MOTION_DDOT": "0.0000000000000",
        "SEMIMAJOR_AXIS": "29600.313",
        "PERIOD": "844.703",
        "APOAPSIS": "23236.966",
        "PERIAPSIS": "23207.389",
        "OBJECT_TYPE": "PAYLOAD",
        "RCS_SIZE": "LARGE",
        "COUNTRY_CODE": "ESA",
        "LAUNCH_DATE": "2015-12-17",
        "SITE": "FRGUI",
        "DECAY_DATE": null,
        "FILE": "4716572",
        "GP_ID": "286609128",
        "TLE_LINE0": "0 GALILEO 11 (268)",
        "TLE_LINE1": "1 41175U 15079B   25121.47668547  .00000037  00000-0  00000-0 0  9998",
        "TLE_LINE2": "2 41175  55.5833 112.5632 0004996 319.7136  40.2309  1.70474064 58179"
    }
]